{
  "type": "FeatureCollection",
  "features": [
    {
      "type": "Feature",
      "properties": {
        "norad_id": 43262,
        "name": "GAOFEN-1 04",
        "group": "resource",
        "lat": -51.41110266891913,
        "lon": -135.93408398311,
        "alt_km": 648.033766211478,
        "timestamp": "2025-12-22T11:33:20.087048+00:00",
        "meta_object_name": "GAOFEN-1 04",
        "meta_object_id": "2018-031D",
        "meta_epoch": "2025-12-22T04:00:05.584320",
        "meta_mean_motion": 14.76422446,
        "meta_eccentricity": 6.38e-05,
        "meta_inclination": 98.0799,
        "meta_ra_of_asc_node": 54.0058,
        "meta_arg_of_pericenter": 55.799,
        "meta_mean_anomaly": 304.328,
        "meta_ephemeris_type": 0,
        "meta_classification_type": "U",
        "meta_norad_cat_id": 43262,
        "meta_element_set_no": 999,
        "meta_rev_at_epoch": 41656,
        "meta_bstar": 4.8165e-05,
        "meta_mean_motion_dot": 2.83e-06,
        "meta_mean_motion_ddot": 0,
        "tle_line1": "1 43262U 18031D   25356.16673130  .00000283  00000+0  48165-4 0  9998",
        "tle_line2": "2 43262  98.0799  54.0058 0000638  55.7990 304.3280 14.76422446416567"
      },
      "geometry": {
        "type": "Point",
        "coordinates": [
          -135.93408398311,
          -51.41110266891913
        ]
      }
    },
    {
      "type": "Feature",
      "properties": {
        "norad_id": 43437,
        "name": "SENTINEL-3B",
        "group": "resource",
        "lat": 78.08521456525719,
        "lon": -72.4718957959707,
        "alt_km": 794.1764616822429,
        "timestamp": "2025-12-22T11:33:20.087058+00:00",
        "meta_object_name": "SENTINEL-3B",
        "meta_object_id": "2018-039A",
        "meta_epoch": "2025-12-22T02:40:53.006304",
        "meta_mean_motion": 14.26737543,
        "meta_eccentricity": 0.0001619,
        "meta_inclination": 98.6254,
        "meta_ra_of_asc_node": 61.1622,
        "meta_arg_of_pericenter": 92.471,
        "meta_mean_anomaly": 267.6656,
        "meta_ephemeris_type": 0,
        "meta_classification_type": "U",
        "meta_norad_cat_id": 43437,
        "meta_element_set_no": 999,
        "meta_rev_at_epoch": 39887,
        "meta_bstar": 7.7397e-05,
        "meta_mean_motion_dot": 1.44e-06,
        "meta_mean_motion_ddot": 0,
        "tle_line1": "1 43437U 18039A   25356.11172461  .00000144  00000+0  77397-4 0  9991",
        "tle_line2": "2 43437  98.6254  61.1622 0001619  92.4710 267.6656 14.26737543398870"
      },
      "geometry": {
        "type": "Point",
        "coordinates": [
          -72.4718957959707,
          78.08521456525719
        ]
      }
    },
    {
      "type": "Feature",
      "properties": {
        "norad_id": 43461,
        "name": "GAOFEN-5 01",
        "group": "resource",
        "lat": -6.751925889421823,
        "lon": 138.61296012165383,
        "alt_km": 695.6167998138226,
        "timestamp": "2025-12-22T11:33:20.087068+00:00",
        "meta_object_name": "GAOFEN-5 01",
        "meta_object_id": "2018-043A",
        "meta_epoch": "2025-12-21T21:32:55.022784",
        "meta_mean_motion": 14.60419431,
        "meta_eccentricity": 5.13e-05,
        "meta_inclination": 98.434,
        "meta_ra_of_asc_node": 319.0256,
        "meta_arg_of_pericenter": 275.9177,
        "meta_mean_anomaly": 84.1964,
        "meta_ephemeris_type": 0,
        "meta_classification_type": "U",
        "meta_norad_cat_id": 43461,
        "meta_element_set_no": 999,
        "meta_rev_at_epoch": 40581,
        "meta_bstar": 0.00010047,
        "meta_mean_motion_dot": 4.38e-06,
        "meta_mean_motion_ddot": 0,
        "tle_line1": "1 43461U 18043A   25355.89785906  .00000438  00000+0  10047-3 0  9995",
        "tle_line2": "2 43461  98.4340 319.0256 0000513 275.9177  84.1964 14.60419431405814"
      },
      "geometry": {
        "type": "Point",
        "coordinates": [
          138.61296012165383,
          -6.751925889421823
        ]
      }
    },
    {
      "type": "Feature",
      "properties": {
        "norad_id": 43484,
        "name": "GAOFEN-6",
        "group": "resource",
        "lat": 27.19045729993269,
        "lon": 56.381949542780795,
        "alt_km": 630.2222774379215,
        "timestamp": "2025-12-22T11:33:20.087078+00:00",
        "meta_object_name": "GAOFEN-6",
        "meta_object_id": "2018-048A",
        "meta_epoch": "2025-12-22T04:55:35.092992",
        "meta_mean_motion": 14.76580531,
        "meta_eccentricity": 0.0012727,
        "meta_inclination": 97.8024,
        "meta_ra_of_asc_node": 60.1543,
        "meta_arg_of_pericenter": 35.7176,
        "meta_mean_anomaly": 324.4884,
        "meta_ephemeris_type": 0,
        "meta_classification_type": "U",
        "meta_norad_cat_id": 43484,
        "meta_element_set_no": 999,
        "meta_rev_at_epoch": 40727,
        "meta_bstar": 6.8348e-05,
        "meta_mean_motion_dot": 4.28e-06,
        "meta_mean_motion_ddot": 0,
        "tle_line1": "1 43484U 18048A   25356.20526728  .00000428  00000+0  68348-4 0  9993",
        "tle_line2": "2 43484  97.8024  60.1543 0012727  35.7176 324.4884 14.76580531407275"
      },
      "geometry": {
        "type": "Point",
        "coordinates": [
          56.381949542780795,
          27.19045729993269
        ]
      }
    },
    {
      "type": "Feature",
      "properties": {
        "norad_id": 43585,
        "name": "GAOFEN-11 01",
        "group": "resource",
        "lat": -41.93259553147633,
        "lon": -127.14322911695174,
        "alt_km": 422.89675972810346,
        "timestamp": "2025-12-22T11:33:20.087088+00:00",
        "meta_object_name": "GAOFEN-11 01",
        "meta_object_id": "2018-063A",
        "meta_epoch": "2025-12-22T04:23:57.367104",
        "meta_mean_motion": 15.49474567,
        "meta_eccentricity": 0.000392,
        "meta_inclination": 97.155,
        "meta_ra_of_asc_node": 59.0402,
        "meta_arg_of_pericenter": 263.9526,
        "meta_mean_anomaly": 96.1279,
        "meta_ephemeris_type": 0,
        "meta_classification_type": "U",
        "meta_norad_cat_id": 43585,
        "meta_element_set_no": 999,
        "meta_rev_at_epoch": 41288,
        "meta_bstar": 0.00036052,
        "meta_mean_motion_dot": 0.0001977,
        "meta_mean_motion_ddot": 0,
        "tle_line1": "1 43585U 18063A   25356.18330286  .00019770  00000+0  36052-3 0  9997",
        "tle_line2": "2 43585  97.1550  59.0402 0003920 263.9526  96.1279 15.49474567412880"
      },
      "geometry": {
        "type": "Point",
        "coordinates": [
          -127.14322911695174,
          -41.93259553147633
        ]
      }
    },
    {
      "type": "Feature",
      "properties": {
        "norad_id": 43613,
        "name": "ICESAT-2",
        "group": "resource",
        "lat": -62.36824273153593,
        "lon": -112.79808106881848,
        "alt_km": 490.35187018040233,
        "timestamp": "2025-12-22T11:33:20.087098+00:00",
        "meta_object_name": "ICESAT-2",
        "meta_object_id": "2018-070A",
        "meta_epoch": "2025-12-22T02:23:58.405056",
        "meta_mean_motion": 15.28268178,
        "meta_eccentricity": 0.0003029,
        "meta_inclination": 92.0042,
        "meta_ra_of_asc_node": 243.2634,
        "meta_arg_of_pericenter": 120.3952,
        "meta_mean_anomaly": 239.7597,
        "meta_ephemeris_type": 0,
        "meta_classification_type": "U",
        "meta_norad_cat_id": 43613,
        "meta_element_set_no": 999,
        "meta_rev_at_epoch": 40541,
        "meta_bstar": 0.00050274,
        "meta_mean_motion_dot": 0.00013848,
        "meta_mean_motion_ddot": 0,
        "tle_line1": "1 43613U 18070A   25356.09998154  .00013848  00000+0  50274-3 0  9993",
        "tle_line2": "2 43613  92.0042 243.2634 0003029 120.3952 239.7597 15.28268178405410"
      },
      "geometry": {
        "type": "Point",
        "coordinates": [
          -112.79808106881848,
          -62.36824273153593
        ]
      }
    },
    {
      "type": "Feature",
      "properties": {
        "norad_id": 43719,
        "name": "HYSIS",
        "group": "resource",
        "lat": 43.332891983982044,
        "lon": -112.95519672649942,
        "alt_km": 629.8765136307829,
        "timestamp": "2025-12-22T11:33:20.087109+00:00",
        "meta_object_name": "HYSIS",
        "meta_object_id": "2018-096A",
        "meta_epoch": "2025-12-22T04:26:46.217760",
        "meta_mean_motion": 14.78666253,
        "meta_eccentricity": 9.47e-05,
        "meta_inclination": 98.0089,
        "meta_ra_of_asc_node": 59.1169,
        "meta_arg_of_pericenter": 52.7179,
        "meta_mean_anomaly": 307.4119,
        "meta_ephemeris_type": 0,
        "meta_classification_type": "U",
        "meta_norad_cat_id": 43719,
        "meta_element_set_no": 999,
        "meta_rev_at_epoch": 38126,
        "meta_bstar": 4.941e-05,
        "meta_mean_motion_dot": 3.1e-06,
        "meta_mean_motion_ddot": 0,
        "tle_line1": "1 43719U 18096A   25356.18525715  .00000310  00000+0  49410-4 0  9998",
        "tle_line2": "2 43719  98.0089  59.1169 0000947  52.7179 307.4119 14.78666253381265"
      },
      "geometry": {
        "type": "Point",
        "coordinates": [
          -112.95519672649942,
          43.332891983982044
        ]
      }
    }
  ]
}